Address,City,Venue_Name,Latitude,Longitude,Miles_Away,Type,Category_ID
107 Jericho Rd,Haverhill,AFC Urgent Care Methuen,42.74801,-71.12998,4.7,Emergency Room,4bf58dd8d48988d194941735
107 Jericho Rd,Haverhill,,,,,,4bf58dd8d48988d12e941735
107 Jericho Rd,Haverhill,,,,,,4bf58dd8d48988d163941735
107 Jericho Rd,Haverhill,atkinson fire station,42.839152,-71.151867,1.7,Fire Station,4bf58dd8d48988d12c941735
107 Jericho Rd,Haverhill,Atkinson Resort & Country Club,42.820483121437896,-71.17990084768037,1.5,Golf Course,4bf58dd8d48988d1e6941735
107 Jericho Rd,Haverhill,,,,,,4bf58dd8d48988d118951735
107 Jericho Rd,Haverhill,NorEaster Amtrack Train 685,42.815299980479026,-71.11331238756118,2.0,Train,4bf58dd8d48988d129951735
113 Bridges Ln,North Andover,Boxford Fire Dept,42.695126,-71.04744,1.7,Fire Station,4bf58dd8d48988d12c941735
113 Bridges Ln,North Andover,,,,,,4bf58dd8d48988d163941735
113 Bridges Ln,North Andover,AFC Urgent Care North Andover,42.675540924072266,-71.13066101074219,3.3,Emergency Room,4bf58dd8d48988d194941735
113 Bridges Ln,North Andover,North Andover Country Club,42.69240430784517,-71.09262494446558,1.9,Golf Course,4bf58dd8d48988d1e6941735
113 Bridges Ln,North Andover,,,,,,4bf58dd8d48988d129951735
113 Bridges Ln,North Andover,Police,42.695126,-71.04744,1.7,Police Station,4bf58dd8d48988d12e941735
113 Bridges Ln,North Andover,,,,,,4bf58dd8d48988d118951735
119 Shawsheen Rd,Andover,Andover Police Dept,42.65789,-71.14258,0.7,Police Station,4bf58dd8d48988d12e941735
119 Shawsheen Rd,Andover,AFC Urgent Care North Andover,42.675540924072266,-71.13066101074219,1.7,Emergency Room,4bf58dd8d48988d194941735
119 Shawsheen Rd,Andover,Whole Foods Market,42.66117864117762,-71.14476893602662,0.6,Grocery Store,4bf58dd8d48988d118951735
119 Shawsheen Rd,Andover,MBTA Andover Station,42.658590256981874,-71.14467463584292,0.6,Train Station,4bf58dd8d48988d129951735
119 Shawsheen Rd,Andover,Andover Skate Park,42.657589596905055,-71.15519972834234,0.2,Skate Park,4bf58dd8d48988d163941735
119 Shawsheen Rd,Andover,Indian Ridge Country Club,42.64166900081071,-71.17002027053158,1.5,Golf Course,4bf58dd8d48988d1e6941735
119 Shawsheen Rd,Andover,Central Station,42.65837330996805,-71.14309642809992,0.7,Fire Station,4bf58dd8d48988d12c941735
12 Neal Rd,Danvers,The Butchery - Danvers,42.596574,-70.9597618,1.4,Grocery Store,4bf58dd8d48988d118951735
12 Neal Rd,Danvers,Ferncroft Country Club,42.604393466926,-70.97808598462073,2.5,Golf Course,4bf58dd8d48988d1e6941735
12 Neal Rd,Danvers,Marsh Family Dental,42.56945292,-70.93788299,0.9,Emergency Room,4bf58dd8d48988d194941735
12 Neal Rd,Danvers,State Police Danvers Barracks,42.586402551231025,-70.9684286599296,1.5,Police Station,4bf58dd8d48988d12e941735
12 Neal Rd,Danvers,,,,,,4bf58dd8d48988d163941735
12 Neal Rd,Danvers,Danvers Fire Headquarters,42.5622892,-70.93255443333334,1.5,Fire Station,4bf58dd8d48988d12c941735
12 Neal Rd,Danvers,,,,,,4bf58dd8d48988d129951735
12 Pine St,Peabody,Lt. Ross Park,42.545230841731275,-70.99343283086088,0.3,Playground,4bf58dd8d48988d163941735
12 Pine St,Peabody,Medic 2/Engine 3,42.53722991201219,-70.95381793922671,1.8,Fire Station,4bf58dd8d48988d12c941735
12 Pine St,Peabody,Essex County Sheriffs Department,42.54604293862921,-70.97768127597777,0.6,Police Station,4bf58dd8d48988d12e941735
12 Pine St,Peabody,Salem Country Club,42.53062597362669,-70.96250325880744,1.5,Golf Course,4bf58dd8d48988d1e6941735
12 Pine St,Peabody,Big Y World Class Market,42.55119829432614,-71.00181761947397,0.9,Grocery Store,4bf58dd8d48988d118951735
12 Pine St,Peabody,,,,,,4bf58dd8d48988d129951735
12 Pine St,Peabody,Union Hospital Emergency Room,42.501324,-70.979885,2.9,Emergency Room,4bf58dd8d48988d194941735
15 River St,Newbury,,,,,,4bf58dd8d48988d163941735
15 River St,Newbury,Merrimack Valley Gynecology,42.76529497478418,-71.04550241285732,4.9,Hospital,4bf58dd8d48988d194941735
15 River St,Newbury,,,,,,4bf58dd8d48988d129951735
15 River St,Newbury,,,,,,4bf58dd8d48988d118951735
15 River St,Newbury,,,,,,4bf58dd8d48988d12e941735
15 River St,Newbury,Carriage Pines Golf Club,42.7182502746582,-70.9351806640625,2.6,Golf Course,4bf58dd8d48988d1e6941735
15 River St,Newbury,Byfield Fire Department,42.74544669106804,-70.94367663231802,0.6,Fire Station,4bf58dd8d48988d12c941735
15 Sabrina Ct,Methuen,,,,,,4bf58dd8d48988d163941735
15 Sabrina Ct,Methuen,Central Fire Station,42.72628496734142,-71.19089823884536,1.6,Fire Station,4bf58dd8d48988d12c941735
15 Sabrina Ct,Methuen,Hickory Hill Golf Course,42.697442325693125,-71.23485983247049,1.5,Golf Course,4bf58dd8d48988d1e6941735
15 Sabrina Ct,Methuen,Lawrence General Hospital - Emergency Room,42.70964069615338,-71.14893576089396,3.5,Emergency Room,4bf58dd8d48988d194941735
15 Sabrina Ct,Methuen,Market Basket,42.705272680912685,-71.20139113807743,1.1,Grocery Store,4bf58dd8d48988d118951735
15 Sabrina Ct,Methuen,Littleton Train station,42.69945152741895,-71.205483041456,1.2,Platform,4bf58dd8d48988d129951735
15 Sabrina Ct,Methuen,Methuen Police Department,42.73067,-71.191349,1.8,Police Station,4bf58dd8d48988d12e941735
19 Emerton St #19,Salem,NSMC Salem Hospital,42.51124622143515,-70.90663659210071,1.4,Emergency Room,4bf58dd8d48988d194941735
19 Emerton St #19,Salem,Salem Police Department,42.515705,-70.89664599999999,0.9,Police Station,4bf58dd8d48988d12e941735
19 Emerton St #19,Salem,Salem Fire Department,42.52028424673089,-70.89354709033145,0.5,Fire Station,4bf58dd8d48988d12c941735
19 Emerton St #19,Salem,Milk  & Honey Green Grocer,42.52260628570009,-70.89525472974817,0.5,Grocery Store,4bf58dd8d48988d118951735
19 Emerton St #19,Salem,Meadow at Peabody Golf Course,42.51414308749232,-70.93890485246338,2.8,Golf Course,4bf58dd8d48988d1e6941735
19 Emerton St #19,Salem,MBTA Salem Station,42.524241992545164,-70.89597702026367,0.5,Train Station,4bf58dd8d48988d129951735
19 Emerton St #19,Salem,Salem Common,42.523875635650775,-70.88959917955872,0.2,Park,4bf58dd8d48988d163941735
2 Robin Rd,Beverly,Beverly Fire Station Headquarters,42.548308299601125,-70.87710496886224,1.7,Fire Station,4bf58dd8d48988d12c941735
2 Robin Rd,Beverly,Beverly Golf And Tennis,42.56444772406404,-70.89485918219953,2.4,Golf Course,4bf58dd8d48988d1e6941735
2 Robin Rd,Beverly,Beverly Police Department,42.54784376296167,-70.878144231347,1.8,Police Station,4bf58dd8d48988d12e941735
2 Robin Rd,Beverly,Whole Foods Market,42.573455810546875,-70.87955474853516,1.8,Grocery Store,4bf58dd8d48988d118951735
2 Robin Rd,Beverly,MBTA Montserrat Station,42.56187588412905,-70.8700217981147,1.1,Train Station,4bf58dd8d48988d129951735
2 Robin Rd,Beverly,Cross Lane Field,42.561645992005914,-70.85400832547873,0.3,Soccer Field,4bf58dd8d48988d163941735
2 Robin Rd,Beverly,Beverly Hospital Emergency Department,42.563812329159795,-70.87530103242862,1.4,Emergency Room,4bf58dd8d48988d194941735
2 Valley View Farm Rd,Haverhill,Groveland police,42.763179552723955,-71.024010952834,1.9,Police Station,4bf58dd8d48988d12e941735
2 Valley View Farm Rd,Haverhill,Merrimack Valley Gynecology,42.76529497478418,-71.04550241285732,1.0,Hospital,4bf58dd8d48988d194941735
2 Valley View Farm Rd,Haverhill,Market Basket,42.763878782866655,-71.03776215150258,1.3,Grocery Store,4bf58dd8d48988d118951735
2 Valley View Farm Rd,Haverhill,Berry Fire Protection,42.754329,-71.04000500000001,0.9,Fire Station,4bf58dd8d48988d12c941735
2 Valley View Farm Rd,Haverhill,Renaissance Golf Club,42.77922263772293,-71.03900694941903,2.0,Golf Course,4bf58dd8d48988d1e6941735
2 Valley View Farm Rd,Haverhill,Bradford Station,42.766967622009346,-71.08827122772094,1.8,Train,4bf58dd8d48988d129951735
2 Valley View Farm Rd,Haverhill,,,,,,4bf58dd8d48988d163941735
241 Andover St,Andover,AFC Urgent Care North Andover,42.675540924072266,-71.13066101074219,3.5,Emergency Room,4bf58dd8d48988d194941735
241 Andover St,Andover,,,,,,4bf58dd8d48988d12c941735
241 Andover St,Andover,,,,,,4bf58dd8d48988d12e941735
241 Andover St,Andover,Market Basket Perishable DC,42.6062333171459,-71.16182377032159,1.5,Grocery Store,4bf58dd8d48988d118951735
241 Andover St,Andover,Ballardvale Train Station,42.6276059634327,-71.1600040883113,0.3,Train Station,4bf58dd8d48988d129951735
241 Andover St,Andover,Recreation Park,42.63224642402583,-71.14764536280768,0.4,Park,4bf58dd8d48988d163941735
241 Andover St,Andover,Indian Ridge Country Club,42.64166900081071,-71.17002027053158,1.3,Golf Course,4bf58dd8d48988d1e6941735
30 Willow Rd,Marblehead,NSMC Salem Hospital,42.51124622143515,-70.90663659210071,1.8,Emergency Room,4bf58dd8d48988d194941735
30 Willow Rd,Marblehead,,,,,,4bf58dd8d48988d163941735
30 Willow Rd,Marblehead,Salem Fire Headquarters,42.51965926183748,-70.89368642770788,1.5,Fire Station,4bf58dd8d48988d12c941735
30 Willow Rd,Marblehead,Crosby's Market Marblehead,42.504302407442296,-70.84941026438841,1.2,Grocery Store,4bf58dd8d48988d118951735
30 Willow Rd,Marblehead,Tedesco Country Club Marblehead,42.485367447957316,-70.89423797105376,1.7,Golf Course,4bf58dd8d48988d1e6941735
30 Willow Rd,Marblehead,MBTA Salem Station,42.524241992545164,-70.89597702026367,1.9,Train Station,4bf58dd8d48988d129951735
30 Willow Rd,Marblehead,Marblehead Police Dept,42.49655587917531,-70.85948938762408,0.8,Police Station,4bf58dd8d48988d12e941735
31 Apple Blossom Ln,Lynn,Trader Joe's,42.483820531225696,-71.01821614213671,1.8,Grocery Store,4bf58dd8d48988d118951735
31 Apple Blossom Ln,Lynn,,,,,,4bf58dd8d48988d129951735
31 Apple Blossom Ln,Lynn,Gannon Country Club,42.49012504629789,-70.97480198632432,1.2,Golf Course,4bf58dd8d48988d1e6941735
31 Apple Blossom Ln,Lynn,,,,,,4bf58dd8d48988d163941735
31 Apple Blossom Ln,Lynn,Union Hospital Emergency Room,42.501324,-70.979885,0.6,Emergency Room,4bf58dd8d48988d194941735
31 Apple Blossom Ln,Lynn,Lynnfield Fire,42.515010833740234,-71.01183319091797,1.4,Fire Station,4bf58dd8d48988d12c941735
31 Apple Blossom Ln,Lynn,,,,,,4bf58dd8d48988d12e941735
31 Country Club Way,Ipswich,Action Linebrook,42.684461,-70.919625,0.9,Emergency Room,4bf58dd8d48988d194941735
31 Country Club Way,Ipswich,,,,,,4bf58dd8d48988d163941735
31 Country Club Way,Ipswich,Ipswich Country Club,42.69465934974526,-70.89781971291814,0.6,Golf Course,4bf58dd8d48988d1e6941735
31 Country Club Way,Ipswich,Rowley police station,42.70672607421875,-70.91615295410156,0.9,Police Station,4bf58dd8d48988d12e941735
31 Country Club Way,Ipswich,,,,,,4bf58dd8d48988d129951735
31 Country Club Way,Ipswich,Market Basket,42.708056889982615,-70.90606720686979,1.0,Grocery Store,4bf58dd8d48988d118951735
31 Country Club Way,Ipswich,Ipswich Fire Department,42.684563,-70.919613,0.9,Fire Station,4bf58dd8d48988d12c941735
31 Follinsbee Ln,West Newbury,Merrimack Valley Gynecology,42.76529497478418,-71.04550241285732,3.0,Hospital,4bf58dd8d48988d194941735
31 Follinsbee Ln,West Newbury,West Newbury Food Mart,42.794878000000004,-70.995981,0.2,Grocery Store,4bf58dd8d48988d118951735
31 Follinsbee Ln,West Newbury,,,,,,4bf58dd8d48988d129951735
31 Follinsbee Ln,West Newbury,West Newbury Fire Station,42.801296563319845,-70.98808877592816,0.8,Fire Station,4bf58dd8d48988d12c941735
31 Follinsbee Ln,West Newbury,West Newbury Police Department,42.795833587646484,-70.99629211425781,0.2,Police Station,4bf58dd8d48988d12e941735
31 Follinsbee Ln,West Newbury,Renaissance Golf Club,42.77922263772293,-71.03900694941903,2.2,Golf Course,4bf58dd8d48988d1e6941735
31 Follinsbee Ln,West Newbury,,,,,,4bf58dd8d48988d163941735
35 Harris St,Marblehead,,,,,,4bf58dd8d48988d129951735
35 Harris St,Marblehead,Marblehead Police Dept,42.49655587917531,-70.85948938762408,0.8,Police Station,4bf58dd8d48988d12e941735
35 Harris St,Marblehead,Tedesco Country Club Marblehead,42.485367447957316,-70.89423797105376,2.6,Golf Course,4bf58dd8d48988d1e6941735
35 Harris St,Marblehead,Crocker Park,42.5030138179245,-70.84857364626099,0.2,Park,4bf58dd8d48988d163941735
35 Harris St,Marblehead,Crosby's Market Marblehead,42.504302407442296,-70.84941026438841,0.1,Grocery Store,4bf58dd8d48988d118951735
35 Harris St,Marblehead,NSMC Salem Hospital,42.51124622143515,-70.90663659210071,2.9,Emergency Room,4bf58dd8d48988d194941735
35 Harris St,Marblehead,Number One Security Company,42.484943,-70.867611,1.7,Fire Station,4bf58dd8d48988d12c941735
37 Biscayne Ave,Saugus,Cliftondale Depot Station,42.448833,-71.01467,1.6,Train Station,4bf58dd8d48988d129951735
37 Biscayne Ave,Saugus,Saugus Iron Works National Historic Site,42.468462034176405,-71.00887978673173,0.4,Historic Site,4bf58dd8d48988d163941735
37 Biscayne Ave,Saugus,Gannon Country Club,42.49012504629789,-70.97480198632432,2.0,Golf Course,4bf58dd8d48988d1e6941735
37 Biscayne Ave,Saugus,Trader Joe's,42.483820531225696,-71.01821614213671,1.3,Grocery Store,4bf58dd8d48988d118951735
37 Biscayne Ave,Saugus,"Guarente Plumbing & Heating, Inc",42.463531494140625,-71.00939178466797,0.6,Fire Station,4bf58dd8d48988d12c941735
37 Biscayne Ave,Saugus,Atlantic Ambulance- Lynn,42.47461958550371,-70.95608488234025,2.4,Emergency Room,4bf58dd8d48988d194941735
37 Biscayne Ave,Saugus,Saugus Police Dept,42.464192242201065,-71.006749655218,0.4,Police Station,4bf58dd8d48988d12e941735
38 Washington St,Marblehead,Marblehead Police Dept,42.49655587917531,-70.85948938762408,0.9,Police Station,4bf58dd8d48988d12e941735
38 Washington St,Marblehead,NSMC Salem Hospital,42.51124622143515,-70.90663659210071,3.0,Emergency Room,4bf58dd8d48988d194941735
38 Washington St,Marblehead,Crosby's Market Marblehead,42.504302407442296,-70.84941026438841,0.2,Grocery Store,4bf58dd8d48988d118951735
38 Washington St,Marblehead,,,,,,4bf58dd8d48988d129951735
38 Washington St,Marblehead,Crocker Park,42.5030138179245,-70.84857364626099,0.3,Park,4bf58dd8d48988d163941735
38 Washington St,Marblehead,Number One Security Company,42.484943,-70.867611,1.8,Fire Station,4bf58dd8d48988d12c941735
38 Washington St,Marblehead,Tedesco Country Club Marblehead,42.485367447957316,-70.89423797105376,2.8,Golf Course,4bf58dd8d48988d1e6941735
4 GERRY Rd,Lynnfield,Whole Foods Market,42.5144224656762,-71.03206340823202,0.7,Grocery Store,4bf58dd8d48988d118951735
4 GERRY Rd,Lynnfield,Lynnfield Fire,42.515010833740234,-71.01183319091797,1.3,Fire Station,4bf58dd8d48988d12c941735
4 GERRY Rd,Lynnfield,MBTA Commuter Rail Train #214,42.52117593798743,-71.06813020535205,1.8,Train,4bf58dd8d48988d129951735
4 GERRY Rd,Lynnfield,Sagamore Springs Golf Course,42.55908035013706,-71.04031126064984,2.4,Golf Course,4bf58dd8d48988d1e6941735
4 GERRY Rd,Lynnfield,Reading Police Academy,42.517909497485924,-71.05178771346687,1.1,Police Station,4bf58dd8d48988d12e941735
4 GERRY Rd,Lynnfield,,,,,,4bf58dd8d48988d163941735
4 GERRY Rd,Lynnfield,Union Hospital Emergency Room,42.501324,-70.979885,3.2,Emergency Room,4bf58dd8d48988d194941735
440 WINTER St,North Andover,,,,,,4bf58dd8d48988d129951735
440 WINTER St,North Andover,AFC Urgent Care North Andover,42.675540924072266,-71.13066101074219,3.5,Emergency Room,4bf58dd8d48988d194941735
440 WINTER St,North Andover,Police,42.695126,-71.04744,1.0,Police Station,4bf58dd8d48988d12e941735
440 WINTER St,North Andover,,,,,,4bf58dd8d48988d163941735
440 WINTER St,North Andover,Boxford Fire Dept,42.695126,-71.04744,1.0,Fire Station,4bf58dd8d48988d12c941735
440 WINTER St,North Andover,North Andover Country Club,42.69240430784517,-71.09262494446558,1.4,Golf Course,4bf58dd8d48988d1e6941735
440 WINTER St,North Andover,Supermercado latino,42.71399749052936,-71.05522920855148,1.6,Grocery Store,4bf58dd8d48988d118951735
445 Wethersfield St,Rowley,Action Linebrook,42.684461,-70.919625,2.9,Emergency Room,4bf58dd8d48988d194941735
445 Wethersfield St,Rowley,,,,,,4bf58dd8d48988d163941735
445 Wethersfield St,Rowley,Ipswich Country Club,42.69465934974526,-70.89781971291814,2.4,Golf Course,4bf58dd8d48988d1e6941735
445 Wethersfield St,Rowley,,,,,,4bf58dd8d48988d129951735
445 Wethersfield St,Rowley,Byfield Fire Department,42.74544669106804,-70.94367663231802,1.9,Fire Station,4bf58dd8d48988d12c941735
445 Wethersfield St,Rowley,Market Basket,42.708056889982615,-70.90606720686979,1.4,Grocery Store,4bf58dd8d48988d118951735
445 Wethersfield St,Rowley,Sherif,42.70887947683751,-70.90636594278574,1.4,Police Station,4bf58dd8d48988d12e941735
46 True Rd,Salisbury,Lion's Park,42.84508639118485,-70.86456395467188,0.5,Baseball Field,4bf58dd8d48988d163941735
46 True Rd,Salisbury,,,,,,4bf58dd8d48988d129951735
46 True Rd,Salisbury,,,,,,4bf58dd8d48988d12e941735
46 True Rd,Salisbury,Salisbury Fire Station,42.84625543542071,-70.8632749969266,0.6,Fire Station,4bf58dd8d48988d12c941735
46 True Rd,Salisbury,,,,,,4bf58dd8d48988d118951735
46 True Rd,Salisbury,Anna Jaques Emergency Room,42.814494089025786,-70.89189893445271,2.4,Emergency Room,4bf58dd8d48988d194941735
46 True Rd,Salisbury,Rangeway Center,42.84123229980469,-70.89085388183594,0.9,Golf Course,4bf58dd8d48988d1e6941735
480 Asbury St,Hamilton,Beverly Hospital Emergency Department,42.563812329159795,-70.87530103242862,4.7,Emergency Room,4bf58dd8d48988d194941735
480 Asbury St,Hamilton,,,,,,4bf58dd8d48988d163941735
480 Asbury St,Hamilton,MBTA Hamilton Station,42.60977484088575,-70.87477677975534,1.7,Train Station,4bf58dd8d48988d129951735
480 Asbury St,Hamilton,Hamilton Public Safety Building (Police and Fire),42.61258834844067,-70.87193640554771,1.6,Police Station,4bf58dd8d48988d12e941735
480 Asbury St,Hamilton,,,,,,4bf58dd8d48988d12c941735
480 Asbury St,Hamilton,CITGO HAMILTON CONVENIENCE,42.61201376270865,-70.87344472158973,1.6,Grocery Store,4bf58dd8d48988d118951735
480 Asbury St,Hamilton,Myopia Hunt Club,42.60920820991451,-70.85915262940203,2.2,Golf Course,4bf58dd8d48988d1e6941735
5 Benevento Cir,Peabody,,,,,,4bf58dd8d48988d12c941735
5 Benevento Cir,Peabody,,,,,,4bf58dd8d48988d163941735
5 Benevento Cir,Peabody,Beverly Hospital At Danvers,42.584337759424194,-70.97200627076526,2.1,Hospital,4bf58dd8d48988d194941735
5 Benevento Cir,Peabody,Big Y World Class Market,42.55119829432614,-71.00181761947397,0.7,Grocery Store,4bf58dd8d48988d118951735
5 Benevento Cir,Peabody,,,,,,4bf58dd8d48988d129951735
5 Benevento Cir,Peabody,Paradise Mini Golf,42.57418976417487,-70.99771638411329,1.2,Golf Course,4bf58dd8d48988d1e6941735
5 Benevento Cir,Peabody,Essex County Sheriffs Department,42.54604293862921,-70.97768127597777,1.1,Police Station,4bf58dd8d48988d12e941735
50 Bradford St,Haverhill,7-Eleven,42.7303094,-71.1368992,1.4,Grocery Store,4bf58dd8d48988d118951735
50 Bradford St,Haverhill,,,,,,4bf58dd8d48988d163941735
50 Bradford St,Haverhill,Far Corner Golf Course,42.73441357014328,-71.08504074616869,1.3,Golf Course,4bf58dd8d48988d1e6941735
50 Bradford St,Haverhill,North Andover Police Dept.,42.72851161371706,-71.11164378323575,0.6,Police Station,4bf58dd8d48988d12e941735
50 Bradford St,Haverhill,,,,,,4bf58dd8d48988d12c941735
50 Bradford St,Haverhill,AFC Urgent Care Methuen,42.74801,-71.12998,1.3,Emergency Room,4bf58dd8d48988d194941735
50 Bradford St,Haverhill,Amtrak Train 686,42.75816080001131,-71.10059851795998,1.5,Train,4bf58dd8d48988d129951735
50 Cobblestone Cir,North Andover,North Andover Town Common,42.68425947938683,-71.11500096346748,0.2,Park,4bf58dd8d48988d163941735
50 Cobblestone Cir,North Andover,Andover Country Club,42.672571426961625,-71.16706660710031,2.6,Golf Course,4bf58dd8d48988d1e6941735
50 Cobblestone Cir,North Andover,North Andover Fire Department,42.682369,-71.110961,0.5,Fire Station,4bf58dd8d48988d12c941735
50 Cobblestone Cir,North Andover,Andover Commuter Rail Station,42.6658901633064,-71.14708926384874,2.0,Train,4bf58dd8d48988d129951735
50 Cobblestone Cir,North Andover,North Andover Police Department,42.692820000000005,-71.119249,0.5,Police Station,4bf58dd8d48988d12e941735
50 Cobblestone Cir,North Andover,AFC Urgent Care North Andover,42.675540924072266,-71.13066101074219,0.9,Emergency Room,4bf58dd8d48988d194941735
50 Cobblestone Cir,North Andover,Market Basket,42.68459997115708,-71.13646899619886,0.9,Grocery Store,4bf58dd8d48988d118951735
575 Essex St,Hamilton,Beverly Hospital Security Office,42.56423631001792,-70.87499110760453,4.7,Emergency Room,4bf58dd8d48988d194941735
575 Essex St,Hamilton,Gordon Police,42.59088559075832,-70.8235256863326,1.9,Police Station,4bf58dd8d48988d12e941735
575 Essex St,Hamilton,,,,,,4bf58dd8d48988d118951735
575 Essex St,Hamilton,,,,,,4bf58dd8d48988d163941735
575 Essex St,Hamilton,,,,,,4bf58dd8d48988d129951735
575 Essex St,Hamilton,,,,,,4bf58dd8d48988d12c941735
575 Essex St,Hamilton,Myopia Hunt Club,42.60920820991451,-70.85915262940203,2.1,Golf Course,4bf58dd8d48988d1e6941735
6 Barberry Ln,West Newbury,West Newbury Fire Station,42.801296563319845,-70.98808877592816,1.4,Fire Station,4bf58dd8d48988d12c941735
6 Barberry Ln,West Newbury,Merrimack Valley Gynecology,42.76529497478418,-71.04550241285732,2.5,Hospital,4bf58dd8d48988d194941735
6 Barberry Ln,West Newbury,West Newbury Police Department,42.795833587646484,-70.99629211425781,0.8,Police Station,4bf58dd8d48988d12e941735
6 Barberry Ln,West Newbury,,,,,,4bf58dd8d48988d163941735
6 Barberry Ln,West Newbury,West Newbury Food Mart,42.794878000000004,-70.995981,0.8,Grocery Store,4bf58dd8d48988d118951735
6 Barberry Ln,West Newbury,Renaissance Golf Club,42.77922263772293,-71.03900694941903,1.8,Golf Course,4bf58dd8d48988d1e6941735
6 Barberry Ln,West Newbury,,,,,,4bf58dd8d48988d129951735
69 Old Yankee Rd,Haverhill,Kev's Country Store,42.80676773,-71.200477,1.4,Grocery Store,4bf58dd8d48988d118951735
69 Old Yankee Rd,Haverhill,AFC Urgent Care Methuen,42.74801,-71.12998,4.2,Emergency Room,4bf58dd8d48988d194941735
69 Old Yankee Rd,Haverhill,,,,,,4bf58dd8d48988d12e941735
69 Old Yankee Rd,Haverhill,,,,,,4bf58dd8d48988d163941735
69 Old Yankee Rd,Haverhill,,,,,,4bf58dd8d48988d12c941735
69 Old Yankee Rd,Haverhill,,,,,,4bf58dd8d48988d129951735
69 Old Yankee Rd,Haverhill,Atkinson Resort & Country Club,42.820483121437896,-71.17990084768037,1.6,Golf Course,4bf58dd8d48988d1e6941735
7 Montgomery St,Saugus,Atlantic Ambulance- Lynn,42.47461958550371,-70.95608488234025,2.5,Emergency Room,4bf58dd8d48988d194941735
7 Montgomery St,Saugus,Saugus Police Dept,42.464192242201065,-71.006749655218,0.6,Police Station,4bf58dd8d48988d12e941735
7 Montgomery St,Saugus,,,,,,4bf58dd8d48988d163941735
7 Montgomery St,Saugus,Mt. Hood Golf Club,42.453714435060405,-71.0399424825267,2.1,Golf Course,4bf58dd8d48988d1e6941735
7 Montgomery St,Saugus,"Guarente Plumbing & Heating, Inc",42.463531494140625,-71.00939178466797,0.7,Fire Station,4bf58dd8d48988d12c941735
7 Montgomery St,Saugus,Market Basket,42.46322728962244,-70.96752903651466,1.7,Grocery Store,4bf58dd8d48988d118951735
7 Montgomery St,Saugus,Cliftondale Depot Station,42.448833,-71.01467,1.0,Train Station,4bf58dd8d48988d129951735
7 Sparhawk Dr,Lynnfield,King Rail Golf Course,42.51649086673135,-71.02643993034306,0.5,Golf Course,4bf58dd8d48988d1e6941735
7 Sparhawk Dr,Lynnfield,Union Hospital Emergency Room,42.501324,-70.979885,2.6,Emergency Room,4bf58dd8d48988d194941735
7 Sparhawk Dr,Lynnfield,,,,,,4bf58dd8d48988d163941735
7 Sparhawk Dr,Lynnfield,,,,,,4bf58dd8d48988d129951735
7 Sparhawk Dr,Lynnfield,Whole Foods Market,42.5144224656762,-71.03206340823202,0.3,Grocery Store,4bf58dd8d48988d118951735
7 Sparhawk Dr,Lynnfield,Lynnfield Fire,42.515010833740234,-71.01183319091797,1.0,Fire Station,4bf58dd8d48988d12c941735
7 Sparhawk Dr,Lynnfield,Reading Police Academy,42.517909497485924,-71.05178771346687,1.2,Police Station,4bf58dd8d48988d12e941735
75 Bennett Hill Rd,Rowley,Sherif,42.70887947683751,-70.90636594278574,1.5,Police Station,4bf58dd8d48988d12e941735
75 Bennett Hill Rd,Rowley,Ipswich Country Club,42.69465934974526,-70.89781971291814,2.2,Golf Course,4bf58dd8d48988d1e6941735
75 Bennett Hill Rd,Rowley,Market Basket,42.708056889982615,-70.90606720686979,1.5,Grocery Store,4bf58dd8d48988d118951735
75 Bennett Hill Rd,Rowley,Rowley Fire Department,42.715768,-70.87789000000001,0.9,Fire Station,4bf58dd8d48988d12c941735
75 Bennett Hill Rd,Rowley,Action Linebrook,42.684461,-70.919625,3.3,Emergency Room,4bf58dd8d48988d194941735
75 Bennett Hill Rd,Rowley,,,,,,4bf58dd8d48988d163941735
75 Bennett Hill Rd,Rowley,MBTA Rowley Station,42.72607258467487,-70.85904811817767,1.5,Train Station,4bf58dd8d48988d129951735
76 High Rd,Newbury,Newbury Firefighters' Memorial Hall,42.79816775676745,-70.86062520250361,0.6,Fire Station,4bf58dd8d48988d12c941735
76 High Rd,Newbury,Newburyport Police Department,42.811572,-70.872509,1.7,Police Station,4bf58dd8d48988d12e941735
76 High Rd,Newbury,Anna Jaques Emergency Room,42.814494089025786,-70.89189893445271,2.5,Emergency Room,4bf58dd8d48988d194941735
76 High Rd,Newbury,Tendercrop Farm,42.78665327883775,-70.85116502308236,0.4,Grocery Store,4bf58dd8d48988d118951735
76 High Rd,Newbury,Amesbury Country Club,42.812252044677734,-70.87590789794922,1.8,Golf Course,4bf58dd8d48988d1e6941735
76 High Rd,Newbury,The Newbury Green,42.796481,-70.861536,0.5,Park,4bf58dd8d48988d163941735
76 High Rd,Newbury,Newburyport MBTA Station,42.79799828387902,-70.87805133647616,1.3,Train Station,4bf58dd8d48988d129951735
8 Rock O Dundee Rd,Andover,Doctors Park,42.675334380166895,-71.13592478751644,0.5,Park,4bf58dd8d48988d163941735
8 Rock O Dundee Rd,Andover,Whole Foods Market,42.66117864117762,-71.14476893602662,0.6,Grocery Store,4bf58dd8d48988d118951735
8 Rock O Dundee Rd,Andover,Indian Ridge Country Club,42.64166900081071,-71.17002027053158,2.4,Golf Course,4bf58dd8d48988d1e6941735
8 Rock O Dundee Rd,Andover,AFC Urgent Care North Andover,42.675540924072266,-71.13066101074219,0.7,Emergency Room,4bf58dd8d48988d194941735
8 Rock O Dundee Rd,Andover,Central Station,42.65837330996805,-71.14309642809992,0.8,Fire Station,4bf58dd8d48988d12c941735
8 Rock O Dundee Rd,Andover,Andover Police Dept,42.65789,-71.14258,0.8,Police Station,4bf58dd8d48988d12e941735
8 Rock O Dundee Rd,Andover,MBTA Andover Station,42.659738097196076,-71.14410134740966,0.7,Train Station,4bf58dd8d48988d129951735
80 Jackman St,Georgetown,,,,,,4bf58dd8d48988d118951735
80 Jackman St,Georgetown,,,,,,4bf58dd8d48988d129951735
80 Jackman St,Georgetown,Action Linebrook,42.684461,-70.919625,3.9,Emergency Room,4bf58dd8d48988d194941735
80 Jackman St,Georgetown,Byfield Fire Department,42.74544669106804,-70.94367663231802,0.5,Fire Station,4bf58dd8d48988d12c941735
80 Jackman St,Georgetown,,,,,,4bf58dd8d48988d12e941735
80 Jackman St,Georgetown,Carriage Pines Golf Club,42.7182502746582,-70.9351806640625,1.5,Golf Course,4bf58dd8d48988d1e6941735
80 Jackman St,Georgetown,,,,,,4bf58dd8d48988d163941735
9 Allison Cir,Haverhill,Renaissance Golf Club,42.77922263772293,-71.03900694941903,2.7,Golf Course,4bf58dd8d48988d1e6941735
9 Allison Cir,Haverhill,Bradford Common,42.75466725577759,-71.07353886923384,0.3,Park,4bf58dd8d48988d163941735
9 Allison Cir,Haverhill,Merrimack Valley Gynecology,42.76529497478418,-71.04550241285732,1.8,Hospital,4bf58dd8d48988d194941735
9 Allison Cir,Haverhill,Groveland Fire South Station,42.74235259085221,-71.04564170033714,1.5,Fire Station,4bf58dd8d48988d12c941735
9 Allison Cir,Haverhill,MBTA Haverhill Station,42.77349592848773,-71.08642768108224,1.8,Train Station,4bf58dd8d48988d129951735
9 Allison Cir,Haverhill,Market Basket,42.77568326552672,-71.0747959579035,1.8,Grocery Store,4bf58dd8d48988d118951735
9 Allison Cir,Haverhill,Haverhill Police Department,42.77591509937773,-71.0791815225468,1.8,Police Station,4bf58dd8d48988d12e941735
99 High St,Andover,Whole Foods Market,42.66117864117762,-71.14476893602662,0.3,Grocery Store,4bf58dd8d48988d118951735
99 High St,Andover,AFC Urgent Care North Andover,42.675540924072266,-71.13066101074219,0.9,Emergency Room,4bf58dd8d48988d194941735
99 High St,Andover,,,,,,4bf58dd8d48988d163941735
99 High St,Andover,Indian Ridge Country Club,42.64166900081071,-71.17002027053158,2.2,Golf Course,4bf58dd8d48988d1e6941735
99 High St,Andover,Central Station,42.65837330996805,-71.14309642809992,0.4,Fire Station,4bf58dd8d48988d12c941735
99 High St,Andover,MBTA Andover Station,42.659738097196076,-71.14410134740966,0.4,Train Station,4bf58dd8d48988d129951735
99 High St,Andover,Andover Police Dept,42.65789,-71.14258,0.5,Police Station,4bf58dd8d48988d12e941735
Abbeyville,Andover,,,,,,4bf58dd8d48988d163941735
Abbeyville,Andover,Trull Brook Golf Course,42.64966975240695,-71.26319029773093,1.0,Golf Course,4bf58dd8d48988d1e6941735
Abbeyville,Andover,,,,,,4bf58dd8d48988d12c941735
Abbeyville,Andover,Lowell General Hospital Saints Campus Emergency Department,42.64569474391476,-71.30117297172546,2.9,Emergency Room,4bf58dd8d48988d194941735
Abbeyville,Andover,,,,,,4bf58dd8d48988d12e941735
Abbeyville,Andover,,,,,,4bf58dd8d48988d129951735
Abbeyville,Andover,,,,,,4bf58dd8d48988d118951735
Lot 7A Cooper Ln,Methuen,Kev's Country Store,42.80676773,-71.200477,1.9,Grocery Store,4bf58dd8d48988d118951735
Lot 7A Cooper Ln,Methuen,,,,,,4bf58dd8d48988d163941735
Lot 7A Cooper Ln,Methuen,AFC Urgent Care Methuen,42.74801,-71.12998,3.5,Emergency Room,4bf58dd8d48988d194941735
Lot 7A Cooper Ln,Methuen,,,,,,4bf58dd8d48988d12e941735
Lot 7A Cooper Ln,Methuen,Merrimack Valley Country Club,42.75515241163856,-71.17285097281227,2.1,Golf Course,4bf58dd8d48988d1e6941735
Lot 7A Cooper Ln,Methuen,,,,,,4bf58dd8d48988d129951735
Lot 7A Cooper Ln,Methuen,,,,,,4bf58dd8d48988d12c941735
